[{"OBJECT_NAME":"SHIYAN-21 (SY-21)","OBJECT_ID":"2022-172A","EPOCH":"2026-03-09T23:40:42.191616","MEAN_MOTION":15.28197132,"ECCENTRICITY":0.00206059,"INCLINATION":35.9768,"RA_OF_ASC_NODE":332.6944,"ARG_OF_PERICENTER":79.3933,"MEAN_ANOMALY":280.9121,"EPHEMERIS_TYPE":0,"CLASSIFICATION_TYPE":"U","NORAD_CAT_ID":54752,"ELEMENT_SET_NO":999,"REV_AT_EPOCH":18050,"BSTAR":0.00041186164,"MEAN_MOTION_DOT":0.00011616,"MEAN_MOTION_DDOT":0},{"OBJECT_NAME":"STARLINK-35014","OBJECT_ID":"2025-192AB","EPOCH":"2026-03-09T17:06:31.112640","MEAN_MOTION":15.30189497,"ECCENTRICITY":9.794e-5,"INCLINATION":53.1599,"RA_OF_ASC_NODE":232.532,"ARG_OF_PERICENTER":49.0142,"MEAN_ANOMALY":311.0944,"EPHEMERIS_TYPE":0,"CLASSIFICATION_TYPE":"U","NORAD_CAT_ID":65429,"ELEMENT_SET_NO":999,"REV_AT_EPOCH":2938,"BSTAR":0.0008248158,"MEAN_MOTION_DOT":0.00024141,"MEAN_MOTION_DDOT":0}]
